[{"OBJECT_NAME":"SITRO-AIS-59","OBJECT_ID":"2025-313K","EPOCH":"2026-03-09T21:18:35.055936","MEAN_MOTION":15.21259923,"ECCENTRICITY":0.00156259,"INCLINATION":97.4001,"RA_OF_ASC_NODE":145.102,"ARG_OF_PERICENTER":358.3568,"MEAN_ANOMALY":1.7614,"EPHEMERIS_TYPE":0,"CLASSIFICATION_TYPE":"U","NORAD_CAT_ID":67257,"ELEMENT_SET_NO":999,"REV_AT_EPOCH":1084,"BSTAR":0.00052056429,"MEAN_MOTION_DOT":0.00011608,"MEAN_MOTION_DDOT":0},{"OBJECT_NAME":"LANDSAT 5","OBJECT_ID":"1984-021A","EPOCH":"2026-03-09T17:06:39.595392","MEAN_MOTION":15.03956175,"ECCENTRICITY":0.00705197,"INCLINATION":98.0698,"RA_OF_ASC_NODE":343.5816,"ARG_OF_PERICENTER":90.3041,"MEAN_ANOMALY":270.6265,"EPHEMERIS_TYPE":0,"CLASSIFICATION_TYPE":"U","NORAD_CAT_ID":14780,"ELEMENT_SET_NO":999,"REV_AT_EPOCH":77643,"BSTAR":0.00029889959,"MEAN_MOTION_DOT":4.286e-5,"MEAN_MOTION_DDOT":0}]
